NORAD_CAT_ID,OBJECT_NAME,OBJECT_TYPE,EPOCH,MEAN_MOTION,ECCENTRICITY,INCLINATION,RA_OF_ASC_NODE,ARG_OF_PERICENTER,MEAN_ANOMALY,BSTAR,MEAN_MOTION_DOT,MEAN_MOTION_DDOT,TLE_LINE0,TLE_LINE1,TLE_LINE2,SEMIMAJOR_AXIS,PERIOD,APOGEE,PERIGEE,DECAYED
55306.0,STARLINK-5295,PAYLOAD,2023-02-27 23:59:50,15.69935796,0.0005141,70.0017,317.939,268.1598,91.9008,5.0217e-05,5.834e-05,0.0,0 STARLINK-5295,1 55306U 23010AP  23058.99988672  .00005834  00000-0  50217-4 0  9990,2 55306  70.0017 317.9390 0005141 268.1598  91.9008 15.69935796  6708,6737.218,91.723,362.546,355.619,0.0
55306.0,STARLINK-5295,PAYLOAD,2023-02-28 19:52:38,15.69894998,0.0003731,70.0006,315.6082,268.9966,91.0802,-3.3468e-05,-4.231e-05,0.0,0 STARLINK-5295,1 55306U 23010AP  23059.82822590 -.00004231  00000-0 -33468-4 0  9990,2 55306  70.0006 315.6082 0003731 268.9966  91.0802 15.69894998  7150,6737.334,91.726,361.713,356.686,0.0
55306.0,STARLINK-5295,PAYLOAD,2023-03-01 03:31:24,15.69914889,0.0003331,70.0009,314.7131,238.4081,121.679,5.1984e-05,6.04e-05,0.0,0 STARLINK-5295,1 55306U 23010AP  23060.14680861  .00006040  00000-0  51984-4 0  9991,2 55306  70.0009 314.7131 0003331 238.4081 121.6790 15.69914889  6881,6737.278,91.725,361.387,356.898,0.0
55306.0,STARLINK-5295,PAYLOAD,2023-03-01 20:20:40,15.69936184,0.0003632,70.0011,312.7428,245.1321,114.9497,0.00011171,0.00013248,0.0,0 STARLINK-5295,1 55306U 23010AP  23060.84768651  .00013248  00000-0  11171-3 0  9993,2 55306  70.0011 312.7428 0003632 245.1321 114.9497 15.69936184  7317,6737.217,91.723,361.529,356.635,0.0
55306.0,STARLINK-5295,PAYLOAD,2023-03-02 19:16:56,15.69935415,0.0003353,70.0023,310.0576,246.0263,114.0582,2.9693e-05,3.361e-05,0.0,0 STARLINK-5295,1 55306U 23010AP  23061.80343307  .00003361  00000-0  29693-4 0  9991,2 55306  70.0023 310.0576 0003353 246.0263 114.0582 15.69935415  7468,6737.219,91.724,361.343,356.825,0.0
55306.0,STARLINK-5295,PAYLOAD,2023-03-03 01:23:57,15.6993235,0.000401,70.0013,309.3389,244.5426,115.5355,2.1608e-05,2.387e-05,0.0,0 STARLINK-5295,1 55306U 23010AP  23062.05829920  .00002387  00000-0  21608-4 0  9994,2 55306  70.0013 309.3389 0004010 244.5426 115.5355 15.69932350  7183,6737.228,91.724,361.794,356.391,0.0
55306.0,STARLINK-5295,PAYLOAD,2023-03-03 22:48:28,15.69943222,0.0003144,70.0016,306.8314,254.9182,105.1666,5.0418e-05,5.858e-05,0.0,0 STARLINK-5295,1 55306U 23010AP  23062.95032668  .00005858  00000-0  50418-4 0  9995,2 55306  70.0016 306.8314 0003144 254.9182 105.1666 15.69943222  7648,6737.196,91.723,361.18,356.943,0.0
55306.0,STARLINK-5295,PAYLOAD,2023-03-04 04:55:29,15.69910045,0.0002352,70.0016,306.115,276.5126,83.5802,-3.2085e-05,-4.065e-05,0.0,0 STARLINK-5295,1 55306U 23010AP  23063.20520743 -.00004065  00000-0 -32085-4 0  9991,2 55306  70.0016 306.1150 0002352 276.5126  83.5802 15.69910045  7364,6737.291,91.725,360.741,357.572,0.0
55306.0,STARLINK-5295,PAYLOAD,2023-03-04 18:41:15,15.69920818,0.0003794,69.9999,304.503,260.483,99.5937,1.1583e-05,1.18e-05,0.0,0 STARLINK-5295,1 55306U 23010AP  23063.77865400  .00001180  00000-0  11583-4 0  9998,2 55306  69.9999 304.5030 0003794 260.4830  99.5937 15.69920818  7450,6737.261,91.724,361.682,356.569,0.0
55306.0,STARLINK-5295,PAYLOAD,2023-03-05 22:12:47,15.69951339,0.0003887,70.0003,301.2787,269.0537,91.0213,0.00013026,0.00015498,0.0,0 STARLINK-5295,1 55306U 23010AP  23064.92554839  .00015498  00000-0  13026-3 0  9997,2 55306  70.0003 301.2787 0003887 269.0537  91.0213 15.69951339  7630,6737.173,91.723,361.657,356.419,0.0
55306.0,STARLINK-5295,PAYLOAD,2023-03-06 01:16:18,15.69932258,0.0003025,70.0002,300.9196,265.7014,94.3836,1.714e-05,1.849e-05,0.0,0 STARLINK-5295,1 55306U 23010AP  23065.05298628  .00001849  00000-0  17140-4 0  9990,2 55306  70.0002 300.9196 0003025 265.7014  94.3836 15.69932258  7654,6737.228,91.724,361.131,357.055,0.0
55306.0,STARLINK-5295,PAYLOAD,2023-03-06 19:37:19,15.69928318,0.0002311,70.002,298.7715,267.8022,92.2909,0.00010122,0.00011976,0.0,0 STARLINK-5295,1 55306U 23010AP  23065.81759042  .00011976  00000-0  10122-3 0  9990,2 55306  70.0020 298.7715 0002311 267.8022  92.2909 15.69928318  7777,6737.239,91.724,360.661,357.547,0.0
55306.0,STARLINK-5295,PAYLOAD,2023-03-07 01:44:20,15.69940919,0.0002745,70.0007,298.0541,270.0196,90.0685,0.00017343,0.00020705,0.0,0 STARLINK-5295,1 55306U 23010AP  23066.07245608  .00020705  00000-0  17343-3 0  9999,2 55306  70.0007 298.0541 0002745 270.0196  90.0685 15.69940919  7814,6737.203,91.723,360.917,357.219,0.0
55306.0,STARLINK-5295,PAYLOAD,2023-03-08 00:40:36,15.69937802,0.0003655,70.0022,295.3682,267.3894,92.6884,7.3207e-05,8.604e-05,0.0,0 STARLINK-5295,1 55306U 23010AP  23067.02820262  .00008604  00000-0  73207-4 0  9996,2 55306  70.0022 295.3682 0003655 267.3894  92.6884 15.69937802  7964,6737.212,91.723,361.539,356.614,0.0
55306.0,STARLINK-5295,PAYLOAD,2023-03-08 14:26:23,15.69925262,0.0002643,69.9995,293.7518,255.2913,104.799,8.5663e-05,0.000101,0.0,0 STARLINK-5295,1 55306U 23010AP  23067.60165809  .00010100  00000-0  85663-4 0  9992,2 55306  69.9995 293.7518 0002643 255.2913 104.7990 15.69925262  8055,6737.248,91.724,360.893,357.332,0.0
55306.0,STARLINK-5295,PAYLOAD,2023-03-09 17:57:55,15.69941517,0.0004139,69.9991,290.5311,277.62,82.4526,0.00010078,0.00011933,0.0,0 STARLINK-5295,1 55306U 23010AP  23068.74855576  .00011933  00000-0  10078-3 0  9997,2 55306  69.9991 290.5311 0004139 277.6200  82.4526 15.69941517  8234,6737.201,91.723,361.855,356.278,0.0
55306.0,STARLINK-5295,PAYLOAD,2023-03-09 21:01:25,15.69945755,0.0003114,70.0002,290.171,265.2927,94.7913,0.00010162,0.00012034,0.0,0 STARLINK-5295,1 55306U 23010AP  23068.87598639  .00012034  00000-0  10162-3 0  9992,2 55306  70.0002 290.1710 0003114 265.2927  94.7913 15.69945755  8571,6737.189,91.723,361.152,356.956,0.0
55306.0,STARLINK-5295,PAYLOAD,2023-03-10 04:40:11,15.69925372,0.0003212,70.0005,289.2745,262.0638,98.0193,3.3486e-06,1.9e-06,0.0,0 STARLINK-5295,1 55306U 23010AP  23069.19457255  .00000190  00000-0  33486-5 0  9992,2 55306  70.0005 289.2745 0003212 262.0638  98.0193 15.69925372  8305,6737.248,91.724,361.277,356.949,0.0
55306.0,STARLINK-5295,PAYLOAD,2023-03-10 07:43:41,15.69941579,0.0003445,69.9986,288.9189,270.4953,89.5848,6.1085e-05,7.144e-05,0.0,0 STARLINK-5295,1 55306U 23010AP  23069.32200259  .00007144  00000-0  61085-4 0  9998,2 55306  69.9986 288.9189 0003445 270.4953  89.5848 15.69941579  8320,6737.201,91.723,361.387,356.745,0.0
55306.0,STARLINK-5295,PAYLOAD,2023-03-10 18:25:57,15.69915686,0.0003311,70.0009,287.6623,262.3789,97.7031,-2.4545e-05,-3.162e-05,0.0,0 STARLINK-5295,1 55306U 23010AP  23069.76802479 -.00003162  00000-0 -24545-4 0  9996,2 55306  70.0009 287.6623 0003311 262.3789  97.7031 15.69915686  8399,6737.275,91.725,361.371,356.91,0.0
55306.0,STARLINK-5295,PAYLOAD,2023-03-10 19:57:42,15.69924754,0.0003572,70.0004,287.484,262.2211,97.8579,2.1745e-05,2.403e-05,0.0,0 STARLINK-5295,1 55306U 23010AP  23069.83173926  .00002403  00000-0  21745-4 0  9996,2 55306  70.0004 287.4840 0003572 262.2211  97.8579 15.69924754  8722,6737.249,91.724,361.521,356.708,0.0
55306.0,STARLINK-5295,PAYLOAD,2023-03-11 05:08:13,15.69933588,0.0003369,70.0003,286.4088,269.0633,91.0177,0.00023751,0.00028454,0.0,0 STARLINK-5295,1 55306U 23010AP  23070.21404273  .00028454  00000-0  23751-3 0  9994,2 55306  70.0003 286.4088 0003369 269.0633  91.0177 15.69933588  8467,6737.224,91.724,361.359,356.819,0.0
55306.0,STARLINK-5295,PAYLOAD,2023-03-11 09:43:28,15.69955368,0.0003448,70.0002,285.871,270.3451,89.7349,0.00070988,0.00086138,0.0,0 STARLINK-5295,1 55306U 23010AP  23070.40519055  .00086138  00000-0  70988-3 0  9997,2 55306  70.0002 285.8710 0003448 270.3451  89.7349 15.69955368  8490,6737.162,91.722,361.35,356.704,0.0
55306.0,STARLINK-5295,PAYLOAD,2023-03-11 12:46:59,15.69931068,0.0003462,70.0004,285.5124,283.4452,76.6358,0.00041748,0.00050303,0.0,0 STARLINK-5295,1 55306U 23010AP  23070.53262841  .00050303  00000-0  41748-3 0  9996,2 55306  70.0004 285.5124 0003462 283.4452  76.6358 15.69931068  8834,6737.231,91.724,361.429,356.764,0.0
55306.0,STARLINK-5295,PAYLOAD,2023-03-11 18:53:59,15.69935132,0.0003457,70.0005,284.7959,266.127,93.953,0.00047582,0.0005742,0.0,0 STARLINK-5295,1 55306U 23010AP  23070.78749278  .00057420  00000-0  47582-3 0  9996,2 55306  70.0005 284.7959 0003457 266.1270  93.9530 15.69935132  8551,6737.22,91.724,361.414,356.756,0.0
55306.0,STARLINK-5295,PAYLOAD,2023-03-12 08:39:45,15.6993707,0.0003662,70.0006,283.1837,269.8127,90.2649,0.00057565,0.00069622,0.0,0 STARLINK-5295,1 55306U 23010AP  23071.36094394  .00069622  00000-0  57565-3 0  9992,2 55306  70.0006 283.1837 0003662 269.8127  90.2649 15.69937070  8643,6737.214,91.723,361.546,356.612,0.0
55306.0,STARLINK-5295,PAYLOAD,2023-03-12 13:15:00,15.69949405,0.0003925,70.0005,282.6465,270.6748,89.3998,0.00064711,0.00078417,0.0,0 STARLINK-5295,1 55306U 23010AP  23071.55209316  .00078417  00000-0  64711-3 0  9998,2 55306  70.0005 282.6465 0003925 270.6748  89.3998 15.69949405  8993,6737.179,91.723,361.688,356.399,0.0
55306.0,STARLINK-5295,PAYLOAD,2023-03-12 19:22:01,15.69951681,0.0003666,70.0005,281.9299,272.0703,88.0073,0.00049191,0.00059426,0.0,0 STARLINK-5295,1 55306U 23010AP  23071.80695820  .00059426  00000-0  49191-3 0  9999,2 55306  70.0005 281.9299 0003666 272.0703  88.0073 15.69951681  8718,6737.172,91.723,361.507,356.567,0.0
55306.0,STARLINK-5295,PAYLOAD,2023-03-12 22:25:31,15.69960885,0.0003666,70.0006,281.5714,269.64,90.4376,0.00036181,0.00043587,0.0,0 STARLINK-5295,1 55306U 23010AP  23071.93438820  .00043587  00000-0  36181-3 0  9994,2 55306  70.0006 281.5714 0003666 269.6400  90.4376 15.69960885  9050,6737.146,91.722,361.481,356.541,0.0
55306.0,STARLINK-5295,PAYLOAD,2023-03-13 04:32:32,15.69900213,0.0003513,70.0006,280.8549,277.1002,82.9794,0.00024687,0.00029547,0.0,0 STARLINK-5295,1 55306U 23010AP  23072.18926317  .00029547  00000-0  24687-3 0  9993,2 55306  70.0006 280.8549 0003513 277.1002  82.9794 15.69900213  8778,6737.319,91.726,361.551,356.818,0.0
